{
    "links": {
        "self": "http://www.neowsapp.com/rest/v1/neo/3843103?api_key=iIulBulltgU6a56xZRHN4H3l9WmuAYTsLGpBGhQ2"
    },
    "id": "3843103",
    "neo_reference_id": "3843103",
    "name": "(2019 NT)",
    "designation": "2019 NT",
    "nasa_jpl_url": "http://ssd.jpl.nasa.gov/sbdb.cgi?sstr=3843103",
    "absolute_magnitude_h": 22.4,
    "estimated_diameter": {
        "kilometers": {
            "estimated_diameter_min": 0.0880146521,
            "estimated_diameter_max": 0.1968067451
        },
        "meters": {
            "estimated_diameter_min": 88.0146520901,
            "estimated_diameter_max": 196.8067450894
        },
        "miles": {
            "estimated_diameter_min": 0.0546897524,
            "estimated_diameter_max": 0.122290004
        },
        "feet": {
            "estimated_diameter_min": 288.7619911632,
            "estimated_diameter_max": 645.6914415591
        }
    },
    "is_potentially_hazardous_asteroid": false,
    "close_approach_data": [
        {
            "close_approach_date": "2019-06-18",
            "close_approach_date_full": "2019-Jun-18 15:35",
            "epoch_date_close_approach": 1560872100000,
            "relative_velocity": {
                "kilometers_per_second": "11.070717052",
                "kilometers_per_hour": "39854.5813872641",
                "miles_per_hour": "24764.0869736586"
            },
            "miss_distance": {
                "astronomical": "0.1163960736",
                "lunar": "45.2780726304",
                "kilometers": "17412604.686923232",
                "miles": "10819690.8367233216"
            },
            "orbiting_body": "Earth"
        }
    ],
    "orbital_data": {
        "orbit_id": "6",
        "orbit_determination_date": "2019-08-09 07:02:41",
        "first_observation_date": "2019-06-30",
        "last_observation_date": "2019-07-12",
        "data_arc_in_days": 12,
        "observations_used": 148,
        "orbit_uncertainty": "8",
        "minimum_orbit_intersection": ".105664",
        "jupiter_tisserand_invariant": "3.173",
        "epoch_osculation": "2458667.5",
        "eccentricity": ".5629096326452679",
        "semi_major_axis": "2.50918950799554",
        "inclination": "16.78901845606754",
        "ascending_node_longitude": "277.1515781076466",
        "orbital_period": "1451.772685970056",
        "perihelion_distance": "1.09674256381241",
        "perihelion_argument": "335.5922770049121",
        "aphelion_distance": "3.92163645217867",
        "perihelion_time": "2458637.747234294636",
        "mean_anomaly": "7.377873793495495",
        "mean_motion": ".2479727050102563",
        "equinox": "J2000",
        "orbit_class": {
            "orbit_class_type": "AMO",
            "orbit_class_description": "Near-Earth asteroid orbits similar to that of 1221 Amor",
            "orbit_class_range": "1.017 AU < q (perihelion) < 1.3 AU"
        }
    },
    "is_sentry_object": false
}